0 OPS 4947 (TRANSIT 17)
1 02965U 67092A   13280.74031188  .00000085  00000-0  11066-3 0  2119
2 02965 089.2577 002.5865 0048565 184.6379 292.3806 13.52644214269812
0 OPS 4947 (TRANSIT 17)
1 02965U 67092A   13282.81638072  .00000067  00000-0  83025-4 0  2120
2 02965 089.2578 002.4302 0048745 178.7677 321.6841 13.52644704270094
0 OPS 4947 (TRANSIT 17)
1 02965U 67092A   13287.16922584  .00000099  00000-0  13075-3 0  2141
2 02965 089.2576 002.1030 0049112 166.3834 277.7112 13.52644893270680
0 OPS 4947 (TRANSIT 17)
1 02965U 67092A   13289.46190203  .00000104  00000-0  13806-3 0  2151
2 02965 089.2571 001.9306 0049242 159.9527 281.7277 13.52645426270993
0 OPS 4947 (TRANSIT 17)
1 02965U 67092A   13291.83337293  .00000117  00000-0  15801-3 0  2169
2 02965 089.2566 001.7521 0049463 153.1734 309.5618 13.52646168271314
0 OPS 4947 (TRANSIT 17)
1 02965U 67092A   13294.19607583  .00000106  00000-0  14064-3 0  2172
2 02965 089.2563 001.5736 0049627 146.5582 294.5665 13.52646882271639
